[{"OBJECT_NAME":"PRAETORIAN SDA_617","OBJECT_ID":"2025-203R","EPOCH":"2026-04-25T20:23:51.100800","MEAN_MOTION":13.83197023,"ECCENTRICITY":0.0007365,"INCLINATION":81.3041,"RA_OF_ASC_NODE":59.2842,"ARG_OF_PERICENTER":343.395,"MEAN_ANOMALY":16.6964,"EPHEMERIS_TYPE":0,"CLASSIFICATION_TYPE":"U","NORAD_CAT_ID":65580,"ELEMENT_SET_NO":999,"REV_AT_EPOCH":3145,"BSTAR":5.215e-5,"MEAN_MOTION_DOT":6.9e-7,"MEAN_MOTION_DDOT":0},{"OBJECT_NAME":"PRAETORIAN SDA_618","OBJECT_ID":"2025-203S","EPOCH":"2026-04-25T19:26:25.696032","MEAN_MOTION":13.84767225,"ECCENTRICITY":0.0009382,"INCLINATION":81.303,"RA_OF_ASC_NODE":59.0377,"ARG_OF_PERICENTER":342.1538,"MEAN_ANOMALY":17.9288,"EPHEMERIS_TYPE":0,"CLASSIFICATION_TYPE":"U","NORAD_CAT_ID":65581,"ELEMENT_SET_NO":999,"REV_AT_EPOCH":3146,"BSTAR":0.00020794,"MEAN_MOTION_DOT":2.46e-6,"MEAN_MOTION_DDOT":0},{"OBJECT_NAME":"PRAETORIAN SDA_619","OBJECT_ID":"2025-203T","EPOCH":"2026-04-25T19:32:22.934112","MEAN_MOTION":13.83936913,"ECCENTRICITY":0.0007777,"INCLINATION":81.3052,"RA_OF_ASC_NODE":59.2502,"ARG_OF_PERICENTER":341.3351,"MEAN_ANOMALY":18.7519,"EPHEMERIS_TYPE":0,"CLASSIFICATION_TYPE":"U","NORAD_CAT_ID":65582,"ELEMENT_SET_NO":999,"REV_AT_EPOCH":3208,"BSTAR":0.00021776,"MEAN_MOTION_DOT":2.53e-6,"MEAN_MOTION_DDOT":0},{"OBJECT_NAME":"PRAETORIAN SDA_620","OBJECT_ID":"2025-203U","EPOCH":"2026-04-25T19:57:26.587008","MEAN_MOTION":13.83612453,"ECCENTRICITY":0.0007399,"INCLINATION":81.3034,"RA_OF_ASC_NODE":59.2409,"ARG_OF_PERICENTER":339.0596,"MEAN_ANOMALY":21.0256,"EPHEMERIS_TYPE":0,"CLASSIFICATION_TYPE":"U","NORAD_CAT_ID":65583,"ELEMENT_SET_NO":999,"REV_AT_EPOCH":3145,"BSTAR":0.00018211,"MEAN_MOTION_DOT":2.13e-6,"MEAN_MOTION_DDOT":0},{"OBJECT_NAME":"PRAETORIAN SDA_621","OBJECT_ID":"2025-203V","EPOCH":"2026-04-25T19:29:35.619648","MEAN_MOTION":13.83792863,"ECCENTRICITY":0.0007153,"INCLINATION":81.3025,"RA_OF_ASC_NODE":59.1964,"ARG_OF_PERICENTER":337.452,"MEAN_ANOMALY":22.6321,"EPHEMERIS_TYPE":0,"CLASSIFICATION_TYPE":"U","NORAD_CAT_ID":65584,"ELEMENT_SET_NO":999,"REV_AT_EPOCH":3145,"BSTAR":6.7425e-5,"MEAN_MOTION_DOT":8.6e-7,"MEAN_MOTION_DDOT":0},{"OBJECT_NAME":"PRAETORIAN SDA_601","OBJECT_ID":"2025-203W","EPOCH":"2026-04-25T20:02:51.120096","MEAN_MOTION":13.83423486,"ECCENTRICITY":0.0005642,"INCLINATION":81.3039,"RA_OF_ASC_NODE":59.4199,"ARG_OF_PERICENTER":357.7316,"MEAN_ANOMALY":2.3814,"EPHEMERIS_TYPE":0,"CLASSIFICATION_TYPE":"U","NORAD_CAT_ID":65585,"ELEMENT_SET_NO":999,"REV_AT_EPOCH":3144,"BSTAR":0.00031448,"MEAN_MOTION_DOT":3.58e-6,"MEAN_MOTION_DDOT":0}]
