PRAETORIAN SDA_617      
1 65580U 25203R   26115.84989700  .00000069  00000+0  52150-4 0  9997
2 65580  81.3041  59.2842 0007365 343.3950  16.6964 13.83197023 31453
PRAETORIAN SDA_618      
1 65581U 25203S   26115.81001963  .00000246  00000+0  20794-3 0  9996
2 65581  81.3030  59.0377 0009382 342.1538  17.9288 13.84767225 31465
PRAETORIAN SDA_619      
1 65582U 25203T   26115.81415433  .00000253  00000+0  21776-3 0  9997
2 65582  81.3052  59.2502 0007777 341.3351  18.7519 13.83936913 32088
PRAETORIAN SDA_620      
1 65583U 25203U   26115.83155772  .00000213  00000+0  18211-3 0  9993
2 65583  81.3034  59.2409 0007399 339.0596  21.0256 13.83612453 31455
PRAETORIAN SDA_621      
1 65584U 25203V   26115.81221782  .00000086  00000+0  67425-4 0  9997
2 65584  81.3025  59.1964 0007153 337.4520  22.6321 13.83792863 31452
PRAETORIAN SDA_601      
1 65585U 25203W   26115.83531389  .00000358  00000+0  31448-3 0  9994
2 65585  81.3039  59.4199 0005642 357.7316   2.3814 13.83423486 31443
